GOES 5                  
1 12472U 81049A   26095.58340693 -.00000152  00000+0  00000+0 0  9995
2 12472   9.4893 316.1451 0004090 343.1145   8.6547  1.00206460122112
APPLE                   
1 12545U 81057B   26095.58557360 -.00000187  00000+0  00000+0 0  9994
2 12545   7.2003 297.4074 0022684 226.6916 156.0698  1.00029124121668
EKRAN 7                 
1 12564U 81061A   26095.76428558 -.00000304  00000+0  00000+0 0  9997
2 12564   6.7003 293.6869 0006108  52.1602 222.6692  1.00257796128782
RADUGA 9                
1 12618U 81069A   26095.81209072 -.00000227  00000+0  00000+0 0  9993
2 12618   6.7622 294.1649 0000677 117.7925 165.3912  1.00195650 46611
COSMOS 1285             
1 12627U 81071A   26095.77702253  .00000166  00000+0  00000+0 0  9991
2 12627  68.5134  96.2308 6045654 354.1409 195.9588  1.98053536245063
HIMAWARI-2 (GMS-2)      
1 12677U 81076A   26095.38401973 -.00000295  00000+0  00000+0 0  9997
2 12677   8.1388 304.6623 0011430 333.8222 205.5154  0.99558400131501
SL-6 R/B(2)             
1 12680U 81071D   26095.13546717 -.00000045  00000+0  00000+0 0  9998
2 12680  66.2377  60.5540 6732908  16.4024 357.3737  1.99249879243295
COSMOS 1124 DEB         
1 12814U 79077E   26095.48941463  .00014656  00000+0  17281-1 0  9998
2 12814  60.3340 229.5775 7327396  66.4885 351.3796  2.18198052 61495
COSMOS 1191 DEB         
1 12817U 80057E   26094.98869281  .00000145  00000+0  00000+0 0  9999
2 12817  64.1708  15.5605 7153716  33.7440 355.7420  1.99851759247744
COSMOS 1191 DEB         
1 12834U 80057F   26095.27611956  .00000058  00000+0  00000+0 0  9998
2 12834  65.7390 108.8909 6636699  23.5897 356.3989  2.00298692239829
SL-12 R/B(2)            
1 12851U 81061F   26095.71869563 -.00000029  00000+0  00000+0 0  9990
2 12851   6.1715 291.3837 0003578  52.2912 336.5019  1.01012131 46991
SBS 2                   
1 12855U 81096A   26095.55285839 -.00000350  00000+0  00000+0 0  9999
2 12855  10.3777 321.9226 0004251 262.4526 278.5505  1.00125644117882
COSMOS 1261 DEB         
1 12892U 81031E   26095.41850190  .00016069  00000+0  35470-2 0  9997
2 12892  62.1584  97.3376 7499590  46.0462 355.2360  2.02238870257954
COSMOS 1261 DEB         
1 12893U 81031F   26095.82866881  .00000906  00000+0  00000+0 0  9998
2 12893  64.4669 354.7934 7129104  26.1911 356.8575  2.01170624310656
RADUGA 10               
1 12897U 81102A   26095.87573066 -.00000037  00000+0  00000+0 0  9992
2 12897   6.8777 295.4559 0002689 265.5925  16.8769  1.00290986116619
COSMOS 1030 DEB         
1 12907U 78083E   26095.02980737  .00069142  23052-5  28984-2 0  9995
2 12907  62.1206  17.5854 7482789  58.8587 353.1998  2.06775291333077
COSMOS 1030 DEB         
1 12919U 78083F   26085.65247900  .00000774  00000+0  00000+0 0  9998
2 12919  66.1813 264.0770 6386280 343.6465   2.7129  2.00063366 66930
