[{"OBJECT_NAME":"GOES 5","OBJECT_ID":"1981-049A","EPOCH":"2026-04-05T14:00:06.358752","MEAN_MOTION":1.0020646,"ECCENTRICITY":0.000409,"INCLINATION":9.4893,"RA_OF_ASC_NODE":316.1451,"ARG_OF_PERICENTER":343.1145,"MEAN_ANOMALY":8.6547,"EPHEMERIS_TYPE":0,"CLASSIFICATION_TYPE":"U","NORAD_CAT_ID":12472,"ELEMENT_SET_NO":999,"REV_AT_EPOCH":12211,"BSTAR":0,"MEAN_MOTION_DOT":-1.52e-6,"MEAN_MOTION_DDOT":0},{"OBJECT_NAME":"APPLE","OBJECT_ID":"1981-057B","EPOCH":"2026-04-05T14:03:13.559040","MEAN_MOTION":1.00029124,"ECCENTRICITY":0.0022684,"INCLINATION":7.2003,"RA_OF_ASC_NODE":297.4074,"ARG_OF_PERICENTER":226.6916,"MEAN_ANOMALY":156.0698,"EPHEMERIS_TYPE":0,"CLASSIFICATION_TYPE":"U","NORAD_CAT_ID":12545,"ELEMENT_SET_NO":999,"REV_AT_EPOCH":12166,"BSTAR":0,"MEAN_MOTION_DOT":-1.87e-6,"MEAN_MOTION_DDOT":0},{"OBJECT_NAME":"EKRAN 7","OBJECT_ID":"1981-061A","EPOCH":"2026-04-05T18:20:34.274112","MEAN_MOTION":1.00257796,"ECCENTRICITY":0.0006108,"INCLINATION":6.7003,"RA_OF_ASC_NODE":293.6869,"ARG_OF_PERICENTER":52.1602,"MEAN_ANOMALY":222.6692,"EPHEMERIS_TYPE":0,"CLASSIFICATION_TYPE":"U","NORAD_CAT_ID":12564,"ELEMENT_SET_NO":999,"REV_AT_EPOCH":12878,"BSTAR":0,"MEAN_MOTION_DOT":-3.04e-6,"MEAN_MOTION_DDOT":0},{"OBJECT_NAME":"RADUGA 9","OBJECT_ID":"1981-069A","EPOCH":"2026-04-05T19:29:24.638208","MEAN_MOTION":1.0019565,"ECCENTRICITY":6.77e-5,"INCLINATION":6.7622,"RA_OF_ASC_NODE":294.1649,"ARG_OF_PERICENTER":117.7925,"MEAN_ANOMALY":165.3912,"EPHEMERIS_TYPE":0,"CLASSIFICATION_TYPE":"U","NORAD_CAT_ID":12618,"ELEMENT_SET_NO":999,"REV_AT_EPOCH":4661,"BSTAR":0,"MEAN_MOTION_DOT":-2.27e-6,"MEAN_MOTION_DDOT":0},{"OBJECT_NAME":"COSMOS 1285","OBJECT_ID":"1981-071A","EPOCH":"2026-04-05T18:38:54.746592","MEAN_MOTION":1.98053536,"ECCENTRICITY":0.6045654,"INCLINATION":68.5134,"RA_OF_ASC_NODE":96.2308,"ARG_OF_PERICENTER":354.1409,"MEAN_ANOMALY":195.9588,"EPHEMERIS_TYPE":0,"CLASSIFICATION_TYPE":"U","NORAD_CAT_ID":12627,"ELEMENT_SET_NO":999,"REV_AT_EPOCH":24506,"BSTAR":0,"MEAN_MOTION_DOT":1.66e-6,"MEAN_MOTION_DDOT":0},{"OBJECT_NAME":"HIMAWARI-2 (GMS-2)","OBJECT_ID":"1981-076A","EPOCH":"2026-04-05T09:12:59.304672","MEAN_MOTION":0.995584,"ECCENTRICITY":0.00114308,"INCLINATION":8.1388,"RA_OF_ASC_NODE":304.6623,"ARG_OF_PERICENTER":333.8222,"MEAN_ANOMALY":205.5154,"EPHEMERIS_TYPE":0,"CLASSIFICATION_TYPE":"U","NORAD_CAT_ID":12677,"ELEMENT_SET_NO":999,"REV_AT_EPOCH":13150,"BSTAR":0,"MEAN_MOTION_DOT":-2.95e-6,"MEAN_MOTION_DDOT":0},{"OBJECT_NAME":"SL-6 R/B(2)","OBJECT_ID":"1981-071D","EPOCH":"2026-04-05T03:15:04.363488","MEAN_MOTION":1.99249879,"ECCENTRICITY":0.67329087,"INCLINATION":66.2377,"RA_OF_ASC_NODE":60.554,"ARG_OF_PERICENTER":16.4024,"MEAN_ANOMALY":357.3737,"EPHEMERIS_TYPE":0,"CLASSIFICATION_TYPE":"U","NORAD_CAT_ID":12680,"ELEMENT_SET_NO":999,"REV_AT_EPOCH":24329,"BSTAR":0,"MEAN_MOTION_DOT":-4.5e-7,"MEAN_MOTION_DDOT":0},{"OBJECT_NAME":"COSMOS 1124 DEB","OBJECT_ID":"1979-077E","EPOCH":"2026-04-05T11:44:45.424032","MEAN_MOTION":2.18198052,"ECCENTRICITY":0.73273961,"INCLINATION":60.334,"RA_OF_ASC_NODE":229.5775,"ARG_OF_PERICENTER":66.4885,"MEAN_ANOMALY":351.3796,"EPHEMERIS_TYPE":0,"CLASSIFICATION_TYPE":"U","NORAD_CAT_ID":12814,"ELEMENT_SET_NO":999,"REV_AT_EPOCH":6149,"BSTAR":0.017281245,"MEAN_MOTION_DOT":0.00014656,"MEAN_MOTION_DDOT":0},{"OBJECT_NAME":"COSMOS 1191 DEB","OBJECT_ID":"1980-057E","EPOCH":"2026-04-04T23:43:43.058784","MEAN_MOTION":1.99851759,"ECCENTRICITY":0.71537163,"INCLINATION":64.1708,"RA_OF_ASC_NODE":15.5605,"ARG_OF_PERICENTER":33.744,"MEAN_ANOMALY":355.742,"EPHEMERIS_TYPE":0,"CLASSIFICATION_TYPE":"U","NORAD_CAT_ID":12817,"ELEMENT_SET_NO":999,"REV_AT_EPOCH":24774,"BSTAR":0,"MEAN_MOTION_DOT":1.45e-6,"MEAN_MOTION_DDOT":0},{"OBJECT_NAME":"COSMOS 1191 DEB","OBJECT_ID":"1980-057F","EPOCH":"2026-04-05T06:37:36.729984","MEAN_MOTION":2.00298692,"ECCENTRICITY":0.6636699,"INCLINATION":65.739,"RA_OF_ASC_NODE":108.8909,"ARG_OF_PERICENTER":23.5897,"MEAN_ANOMALY":356.3989,"EPHEMERIS_TYPE":0,"CLASSIFICATION_TYPE":"U","NORAD_CAT_ID":12834,"ELEMENT_SET_NO":999,"REV_AT_EPOCH":23982,"BSTAR":0,"MEAN_MOTION_DOT":5.8e-7,"MEAN_MOTION_DDOT":0},{"OBJECT_NAME":"SL-12 R/B(2)","OBJECT_ID":"1981-061F","EPOCH":"2026-04-05T17:14:55.302432","MEAN_MOTION":1.01012131,"ECCENTRICITY":0.0003578,"INCLINATION":6.1715,"RA_OF_ASC_NODE":291.3837,"ARG_OF_PERICENTER":52.2912,"MEAN_ANOMALY":336.5019,"EPHEMERIS_TYPE":0,"CLASSIFICATION_TYPE":"U","NORAD_CAT_ID":12851,"ELEMENT_SET_NO":999,"REV_AT_EPOCH":4699,"BSTAR":0,"MEAN_MOTION_DOT":-2.9e-7,"MEAN_MOTION_DDOT":0},{"OBJECT_NAME":"SBS 2","OBJECT_ID":"1981-096A","EPOCH":"2026-04-05T13:16:06.964896","MEAN_MOTION":1.00125644,"ECCENTRICITY":0.0004251,"INCLINATION":10.3777,"RA_OF_ASC_NODE":321.9226,"ARG_OF_PERICENTER":262.4526,"MEAN_ANOMALY":278.5505,"EPHEMERIS_TYPE":0,"CLASSIFICATION_TYPE":"U","NORAD_CAT_ID":12855,"ELEMENT_SET_NO":999,"REV_AT_EPOCH":11788,"BSTAR":0,"MEAN_MOTION_DOT":-3.5e-6,"MEAN_MOTION_DDOT":0},{"OBJECT_NAME":"COSMOS 1261 DEB","OBJECT_ID":"1981-031E","EPOCH":"2026-04-05T10:02:38.564160","MEAN_MOTION":2.0223887,"ECCENTRICITY":0.74995902,"INCLINATION":62.1584,"RA_OF_ASC_NODE":97.3376,"ARG_OF_PERICENTER":46.0462,"MEAN_ANOMALY":355.236,"EPHEMERIS_TYPE":0,"CLASSIFICATION_TYPE":"U","NORAD_CAT_ID":12892,"ELEMENT_SET_NO":999,"REV_AT_EPOCH":25795,"BSTAR":0.0035469505,"MEAN_MOTION_DOT":0.00016069,"MEAN_MOTION_DDOT":0},{"OBJECT_NAME":"COSMOS 1261 DEB","OBJECT_ID":"1981-031F","EPOCH":"2026-04-05T19:53:16.985184","MEAN_MOTION":2.01170624,"ECCENTRICITY":0.7129104,"INCLINATION":64.4669,"RA_OF_ASC_NODE":354.7934,"ARG_OF_PERICENTER":26.1911,"MEAN_ANOMALY":356.8575,"EPHEMERIS_TYPE":0,"CLASSIFICATION_TYPE":"U","NORAD_CAT_ID":12893,"ELEMENT_SET_NO":999,"REV_AT_EPOCH":31065,"BSTAR":0,"MEAN_MOTION_DOT":9.06e-6,"MEAN_MOTION_DDOT":0},{"OBJECT_NAME":"RADUGA 10","OBJECT_ID":"1981-102A","EPOCH":"2026-04-05T21:01:03.129024","MEAN_MOTION":1.00290986,"ECCENTRICITY":0.0002689,"INCLINATION":6.8777,"RA_OF_ASC_NODE":295.4559,"ARG_OF_PERICENTER":265.5925,"MEAN_ANOMALY":16.8769,"EPHEMERIS_TYPE":0,"CLASSIFICATION_TYPE":"U","NORAD_CAT_ID":12897,"ELEMENT_SET_NO":999,"REV_AT_EPOCH":11661,"BSTAR":0,"MEAN_MOTION_DOT":-3.7e-7,"MEAN_MOTION_DDOT":0},{"OBJECT_NAME":"COSMOS 1030 DEB","OBJECT_ID":"1978-083E","EPOCH":"2026-04-05T00:42:55.356768","MEAN_MOTION":2.06775291,"ECCENTRICITY":0.74827894,"INCLINATION":62.1206,"RA_OF_ASC_NODE":17.5854,"ARG_OF_PERICENTER":58.8587,"MEAN_ANOMALY":353.1998,"EPHEMERIS_TYPE":0,"CLASSIFICATION_TYPE":"U","NORAD_CAT_ID":12907,"ELEMENT_SET_NO":999,"REV_AT_EPOCH":33307,"BSTAR":0.0028984087,"MEAN_MOTION_DOT":0.00069142,"MEAN_MOTION_DDOT":2.305232e-6},{"OBJECT_NAME":"COSMOS 1030 DEB","OBJECT_ID":"1978-083F","EPOCH":"2026-03-26T15:39:34.185600","MEAN_MOTION":2.00063366,"ECCENTRICITY":0.63862808,"INCLINATION":66.1813,"RA_OF_ASC_NODE":264.077,"ARG_OF_PERICENTER":343.6465,"MEAN_ANOMALY":2.7129,"EPHEMERIS_TYPE":0,"CLASSIFICATION_TYPE":"U","NORAD_CAT_ID":12919,"ELEMENT_SET_NO":999,"REV_AT_EPOCH":6693,"BSTAR":0,"MEAN_MOTION_DOT":7.74e-6,"MEAN_MOTION_DDOT":0}]
